ONEWEB-0258             
1 48976U 21060K   25244.16391115  .00000057  00000+0  11608-3 0  9997
2 48976  87.8995 286.4034 0001842  96.7138 263.4203 13.16594871201567
ONEWEB-0259             
1 48977U 21060L   25244.15757815  .00000055  00000+0  11122-3 0  9999
2 48977  87.9001 286.3902 0001747  94.0111 266.1220 13.16594280201592
ONEWEB-0260             
1 48978U 21060M   25244.14886794 -.00000003  00000+0 -42487-4 0  9992
2 48978  87.8992 286.4157 0002259  83.6116 276.5272 13.16594655201578
ONEWEB-0261             
1 48979U 21060N   25244.19478242  .00000057  00000+0  11537-3 0  9991
2 48979  87.8995 286.4081 0001680  80.0746 280.0574 13.16593535201633
ONEWEB-0262             
1 48980U 21060P   25244.17499664 -.00000037  00000+0 -13112-3 0  9993
2 48980  87.9000 286.3755 0001583  98.5114 261.6197 13.16595231201591
ONEWEB-0263             
1 48981U 21060Q   25244.13066444 -.00000041  00000+0 -14122-3 0  9993
2 48981  87.8994 286.4069 0001516  84.8684 275.2619 13.16593193201559
ONEWEB-0264             
1 48982U 21060R   25244.16785500  .00000036  00000+0  60605-4 0  9998
2 48982  87.8993 286.4046 0001903  86.1350 273.9999 13.16596439201562
ONEWEB-0266             
1 48984U 21060T   25244.18924762  .00000004  00000+0 -23870-4 0  9996
2 48984  87.8999 286.3766 0001855  99.9208 260.2133 13.16593839201557
